NORAD_CAT_ID,OBJECT_NAME,OBJECT_TYPE,EPOCH,MEAN_MOTION,ECCENTRICITY,INCLINATION,RA_OF_ASC_NODE,ARG_OF_PERICENTER,MEAN_ANOMALY,BSTAR,MEAN_MOTION_DOT,MEAN_MOTION_DDOT,TLE_LINE0,TLE_LINE1,TLE_LINE2,SEMIMAJOR_AXIS,PERIOD,APOGEE,PERIGEE,DECAYED
53573.0,STARLINK-4547,PAYLOAD,2022-09-22 06:00:00,15.73162738,0.0003266,53.2172,349.1135,11.9751,21.8486,0.00047066,0.0006586,0.0,0 STARLINK-4547,1 53573U 22101AY  22265.25001157  .00065860  00000-0  47066-3 0  9998,2 53573  53.2172 349.1135 0003266  11.9751  21.8486 15.73162738  5289,6728.001,91.535,352.064,347.6690000000001,0.0
53573.0,STARLINK-4547,PAYLOAD,2022-09-22 14:00:01,15.73161892,0.0003754999999999,53.2173,347.4716,13.2294,109.5321,0.00040586,0.00056647,0.0,0 STARLINK-4547,1 53573U 22101AY  22265.58334491  .00056647  00000-0  40586-3 0  9997,2 53573  53.2173 347.4716 0003755  13.2294 109.5321 15.73161892  1307,6728.004,91.535,352.395,347.342,0.0
53573.0,STARLINK-4547,PAYLOAD,2022-09-22 22:00:00,15.73247609,0.000364,53.2169,345.821,12.6945,198.9644,-0.00062212,-0.00087249,0.0,0 STARLINK-4547,1 53573U 22101AY  22265.91667824 -.00087249  00000-0 -62212-3 0  9997,2 53573  53.2169 345.8210 0003640  12.6945 198.9644 15.73247609  5396,6727.759,91.53,352.0730000000001,347.176,0.0
53573.0,STARLINK-4547,PAYLOAD,2022-09-23 06:00:00,15.7323785,0.0003399999999999,53.2172,344.1668,9.4477,291.1903,-0.00077123,-0.00107701,0.0,0 STARLINK-4547,1 53573U 22101AY  22266.25001157 -.00107701  00000-0 -77123-3 0  9999,2 53573  53.2172 344.1668 0003400   9.4477 291.1903 15.73237850  5444,6727.7869999999975,91.531,351.94,347.365,0.0
53573.0,STARLINK-4547,PAYLOAD,2022-09-23 14:00:01,15.73145571,0.0003647,53.2175,342.5177,5.8687,23.7003,0.00064765,0.00091073,0.0,0 STARLINK-4547,1 53573U 22101AY  22266.58334491  .00091073  00000-0  64765-3 0  9995,2 53573  53.2175 342.5177 0003647   5.8687  23.7003 15.73145571  5493,6728.05,91.536,352.369,347.462,0.0
53573.0,STARLINK-4547,PAYLOAD,2022-09-23 22:00:00,15.73282426,0.000377,53.2171,340.8693,12.7007,105.7459,-0.00096589,-0.00134576,0.0,0 STARLINK-4547,1 53573U 22101AY  22266.91667824 -.00134576  00000-0 -96589-3 0  9998,2 53573  53.2171 340.8693 0003770  12.7007 105.7459 15.73282426  1306,6727.66,91.528,352.06199999999984,346.98900000000015,0.0
53573.0,STARLINK-4547,PAYLOAD,2022-09-24 14:00:01,15.73207393,0.0003972,53.2172,337.575,7.2384,289.3052,0.00025285,0.00035035,0.0,0 STARLINK-4547,1 53573U 22101AY  22267.58335648  .00035035  00000-0  25285-3 0  9991,2 53573  53.2172 337.5750 0003972   7.2384 289.3052 15.73207393  1303,6727.874,91.533,352.411,347.06699999999995,0.0
53573.0,STARLINK-4547,PAYLOAD,2022-09-24 22:00:00,15.73249073,0.0003783,53.2169,335.9240000000001,3.0356,22.4001,-0.00079606,-0.00111169,0.0,0 STARLINK-4547,1 53573U 22101AY  22267.91667824 -.00111169  00000-0 -79606-3 0  9993,2 53573  53.2169 335.9240 0003783   3.0356  22.4001 15.73249073  1309,6727.755,91.53,352.165,347.075,0.0
53573.0,STARLINK-4547,PAYLOAD,2022-09-25 06:00:00,15.73166866,0.0003764,53.2168,334.2744,2.1138,112.2525,0.00036656,0.00051078,0.0,0 STARLINK-4547,1 53573U 22101AY  22268.25001157  .00051078  00000-0  36656-3 0  9990,2 53573  53.2168 334.2744 0003764   2.1138 112.2525 15.73166866  5767,6727.99,91.535,352.38699999999994,347.32199999999995,0.0
53573.0,STARLINK-4547,PAYLOAD,2022-09-25 14:00:01,15.73203306,0.0004088999999999,53.2166,332.6259,1.5603,201.7171,-9.733e-05,-0.0001426999999999,0.0,0 STARLINK-4547,1 53573U 22101AY  22268.58334491 -.00014270  00000-0 -97330-4 0  9998,2 53573  53.2166 332.6259 0004089   1.5603 201.7171 15.73203306  1307,6727.886,91.533,352.50199999999984,347.0,0.0
53573.0,STARLINK-4547,PAYLOAD,2022-09-25 22:00:01,15.73204167,0.0003944,53.2167,330.9747,1.0043,291.2634,-0.00048921,-0.00068769,0.0,0 STARLINK-4547,1 53573U 22101AY  22268.91668981 -.00068769  00000-0 -48921-3 0  9992,2 53573  53.2167 330.9747 0003944   1.0043 291.2634 15.73204167  1307,6727.8830000000025,91.533,352.402,347.095,0.0
53573.0,STARLINK-4547,PAYLOAD,2022-09-26 14:00:01,15.73089012,0.0004277,53.2165,327.6786,2.5037,107.465,0.00065136,0.00091391,0.0,0 STARLINK-4547,1 53573U 22101AY  22269.58334491  .00091391  00000-0  65136-3 0  9994,2 53573  53.2165 327.6786 0004277   2.5037 107.4650 15.73089012  5973,6728.212,91.54,352.954,347.199,0.0
53573.0,STARLINK-4547,PAYLOAD,2022-09-26 22:00:00,15.73147993,0.0004153,53.2163,326.0274,3.263,195.5465,0.00033419,0.00046452,0.0,0 STARLINK-4547,1 53573U 22101AY  22269.91667824  .00046452  00000-0  33419-3 0  9997,2 53573  53.2163 326.0274 0004153   3.2630 195.5465 15.73147993  1304,6728.043000000002,91.536,352.70300000000015,347.11400000000015,0.0
53573.0,STARLINK-4547,PAYLOAD,2022-09-27 06:00:00,15.73202324,0.0004128,53.2161,324.3782,5.0594,282.6286,0.00018519,0.00025458,0.0,0 STARLINK-4547,1 53573U 22101AY  22270.25001157  .00025458  00000-0  18519-3 0  9994,2 53573  53.2161 324.3782 0004128   5.0594 282.6286 15.73202324  6076,6727.889,91.533,352.531,346.976,0.0
53573.0,STARLINK-4547,PAYLOAD,2022-09-27 14:00:01,15.73198377,0.0004424999999999,53.2156,322.7304,5.7053,10.9298,0.00070757,0.00099904,0.0,0 STARLINK-4547,1 53573U 22101AY  22270.58334491  .00099904  00000-0  70757-3 0  9999,2 53573  53.2156 322.7304 0004425   5.7053  10.9298 15.73198377  1307,6727.9,91.533,352.742,346.788,0.0
53573.0,STARLINK-4547,PAYLOAD,2022-09-27 22:00:01,15.73202496,0.0004311,53.2175,321.0705,7.1949,98.5575,2.5855e-05,3.007e-05,0.0,0 STARLINK-4547,1 53573U 22101AY  22270.91668981  .00003007  00000-0  25855-4 0  9999,2 53573  53.2175 321.0705 0004311   7.1949  98.5575 15.73202496  1307,6727.888000000001,91.533,352.653,346.853,0.0
53573.0,STARLINK-4547,PAYLOAD,2022-09-28 14:00:01,15.73199381,0.0004426,53.2158,317.7812,4.6351,278.9179,7.505600000000001e-05,9.926e-05,0.0,0 STARLINK-4547,1 53573U 22101AY  22271.58334491  .00009926  00000-0  75056-4 0  9993,2 53573  53.2158 317.7812 0004426   4.6351 278.9179 15.73199381  1307,6727.897,91.533,352.74,346.784,0.0
53573.0,STARLINK-4547,PAYLOAD,2022-09-28 22:00:00,15.73143109,0.0004102,53.2156,316.1296,3.7048,8.7919,0.00030877,0.00042843,0.0,0 STARLINK-4547,1 53573U 22101AY  22271.91667824  .00042843  00000-0  30877-3 0  9995,2 53573  53.2156 316.1296 0004102   3.7048   8.7919 15.73143109  6334,6728.057,91.536,352.682,347.163,0.0
53573.0,STARLINK-4547,PAYLOAD,2022-09-29 14:00:01,15.73188884,0.000442,53.215,312.8325,4.7369,185.5629,0.0006911,0.00097496,0.0,0 STARLINK-4547,1 53573U 22101AY  22272.58334491  .00097496  00000-0  69110-3 0  9996,2 53573  53.2150 312.8325 0004420   4.7369 185.5629 15.73188884  1307,6727.927,91.534,352.766,346.8180000000001,0.0
53573.0,STARLINK-4547,PAYLOAD,2022-09-29 22:00:00,15.73245025,0.0004184,53.2153,311.1808,4.2184,275.051,-0.00010112,-0.00014827,0.0,0 STARLINK-4547,1 53573U 22101AY  22272.91667824 -.00014827  00000-0 -10112-3 0  9999,2 53573  53.2153 311.1808 0004184   4.2184 275.0510 15.73245025  1300,6727.767,91.531,352.44699999999995,346.81699999999995,0.0
53573.0,STARLINK-4547,PAYLOAD,2022-09-30 06:00:02,15.73278369,0.0004243999999999,53.2155,309.5315,3.0859,5.2170000000000005,-0.00063288,-0.00088863,0.0,0 STARLINK-4547,1 53573U 22101AY  22273.25002315 -.00088863  00000-0 -63288-3 0  9998,2 53573  53.2155 309.5315 0004244   3.0859   5.2170 15.73278369  6542,6727.672,91.529,352.392,346.682,0.0
53573.0,STARLINK-4547,PAYLOAD,2022-09-30 14:00:01,15.73232335,0.0004481,53.2153,307.8832,1.6242,95.6006,-3.7939e-05,-5.957e-05,0.0,0 STARLINK-4547,1 53573U 22101AY  22273.58334491 -.00005957  00000-0 -37939-4 0  9995,2 53573  53.2153 307.8832 0004481   1.6242  95.6006 15.73232335  1301,6727.803000000001,91.531,352.68300000000005,346.653,0.0
53573.0,STARLINK-4547,PAYLOAD,2022-09-30 22:00:00,15.73219292,0.0004204,53.2153,306.2315,1.8082,184.3986,0.00031831,0.00044341,0.0,0 STARLINK-4547,1 53573U 22101AY  22273.91667824  .00044341  00000-0  31831-3 0  9993,2 53573  53.2153 306.2315 0004204   1.8082 184.3986 15.73219292  1307,6727.84,91.532,352.534,346.87699999999984,0.0
53573.0,STARLINK-4547,PAYLOAD,2022-10-01 14:00:01,15.7322017,0.0004376999999999,53.2147,302.9343,3.2430000000000003,0.8961,-0.000292,-0.00041464,0.0,0 STARLINK-4547,1 53573U 22101AY  22274.58334491 -.00041464  00000-0 -29200-3 0  9990,2 53573  53.2147 302.9343 0004377   3.2430   0.8961 15.73220170  1300,6727.8380000000025,91.532,352.647,346.7580000000001,0.0
53573.0,STARLINK-4547,PAYLOAD,2022-10-01 22:00:00,15.73169916,0.0004019,53.2149,301.2827,3.57,89.5187,-0.00032137,-0.00045448,0.0,0 STARLINK-4547,1 53573U 22101AY  22274.91667824 -.00045448  00000-0 -32137-3 0  9995,2 53573  53.2149 301.2827 0004019   3.5700  89.5187 15.73169916  1301,6727.981,91.535,352.55,347.142,0.0
53573.0,STARLINK-4547,PAYLOAD,2022-10-02 14:00:01,15.73162061,0.0004378,53.215,297.9857,7.5946,263.23400000000004,0.0006271,0.00088209,0.0,0 STARLINK-4547,1 53573U 22101AY  22275.58334491  .00088209  00000-0  62710-3 0  9990,2 53573  53.2150 297.9857 0004378   7.5946 263.2340 15.73162061  1307,6728.003000000002,91.535,352.814,346.923,0.0
53573.0,STARLINK-4547,PAYLOAD,2022-10-02 22:00:00,15.73230695,0.0004112,53.215,296.3342,7.7391,352.02,0.00015671,0.00021463,0.0,0 STARLINK-4547,1 53573U 22101AY  22275.91667824  .00021463  00000-0  15671-3 0  9999,2 53573  53.2150 296.3342 0004112   7.7391 352.0200 15.73230695  1302,6727.808000000001,91.531,352.439,346.906,0.0
53573.0,STARLINK-4547,PAYLOAD,2022-10-03 06:00:00,15.73256243,0.0004216999999999,53.2147,294.6861,6.1669,82.5649,-0.00054408,-0.0007652,0.0,0 STARLINK-4547,1 53573U 22101AY  22276.25001157 -.00076520  00000-0 -54408-3 0  9995,2 53573  53.2147 294.6861 0004217   6.1669  82.5649 15.73256243  7026,6727.735,91.53,352.43699999999984,346.76300000000015,0.0
53573.0,STARLINK-4547,PAYLOAD,2022-10-03 14:00:01,15.73214028,0.0004322,53.2141,293.0372,4.5736,173.122,0.00056469,0.00079462,0.0,0 STARLINK-4547,1 53573U 22101AY  22276.58334491  .00079462  00000-0  56469-3 0  9996,2 53573  53.2141 293.0372 0004322   4.5736 173.1220 15.73214028  7076,6727.855,91.532,352.62800000000016,346.81199999999984,0.0
